[{"OBJECT_NAME":"DAQI 1","OBJECT_ID":"2022-039A","EPOCH":"2026-03-09T22:54:20.613600","MEAN_MOTION":14.57656651,"ECCENTRICITY":0.00031421,"INCLINATION":98.1406,"RA_OF_ASC_NODE":9.9086,"ARG_OF_PERICENTER":179.0073,"MEAN_ANOMALY":181.1133,"EPHEMERIS_TYPE":0,"CLASSIFICATION_TYPE":"U","NORAD_CAT_ID":52257,"ELEMENT_SET_NO":999,"REV_AT_EPOCH":20748,"BSTAR":0.00015776959,"MEAN_MOTION_DOT":6.74e-6,"MEAN_MOTION_DDOT":0},{"OBJECT_NAME":"DELTA 1 DEB","OBJECT_ID":"1977-065GK","EPOCH":"2026-03-09T12:42:00.380448","MEAN_MOTION":14.06309065,"ECCENTRICITY":0.05229834,"INCLINATION":29.0296,"RA_OF_ASC_NODE":199.7344,"ARG_OF_PERICENTER":45.239,"MEAN_ANOMALY":318.9544,"EPHEMERIS_TYPE":0,"CLASSIFICATION_TYPE":"U","NORAD_CAT_ID":39098,"ELEMENT_SET_NO":999,"REV_AT_EPOCH":61131,"BSTAR":0.00047724368,"MEAN_MOTION_DOT":2.979e-5,"MEAN_MOTION_DDOT":0}]
